STARLINK-11552 [DTC]    
1 62907U 25027A   25068.88511090  .00003802  00000+0  24683-4 0  9992
2 62907  42.9979  27.8697 0001148 282.0559  78.0182 15.77873922  5798
STARLINK-11561 [DTC]    
1 62908U 25027B   25068.31055673  .00004367  00000+0  27942-4 0  9999
2 62908  42.9979  31.2996 0001266 266.9244  93.1481 15.77859637  5677
STARLINK-11567 [DTC]    
1 62909U 25027C   25069.25030031 -.00006394  00000+0 -33948-4 0  9992
2 62909  42.9958  25.4364 0001666 256.8124 103.2561 15.77826945  5801
STARLINK-11569 [DTC]    
1 62910U 25027D   25069.25517524 -.00003754  00000+0 -18731-4 0  9991
2 62910  42.9975  25.4768 0001383 258.6589 101.4126 15.77841526  5800
STARLINK-11537 [DTC]    
1 62911U 25027E   25069.30871429 -.00000613  00000+0 -65640-6 0  9999
2 62911  42.9963  25.0124 0001438 266.6921  93.3784 15.77849551  5861
STARLINK-11565 [DTC]    
1 62912U 25027F   25069.24053675 -.00001656  00000+0 -66579-5 0  9997
2 62912  42.9958  25.3608 0001237 260.9093  99.1637 15.77845292  5757
STARLINK-11564 [DTC]    
1 62913U 25027G   25069.23565418 -.00007318  00000+0 -39252-4 0  9998
2 62913  43.0015  25.3204 0002088 275.6261  84.4371 15.77833596  5803
STARLINK-11566 [DTC]    
1 62914U 25027H   25069.23077583 -.00007828  00000+0 -42195-4 0  9996
2 62914  43.0011  25.2807 0002437 270.6004  89.4586 15.77829806  5853
STARLINK-11555 [DTC]    
1 62915U 25027J   25069.28920908 -.00010746  00000+0 -59069-4 0  9991
2 62915  42.9957  24.8545 0000560 262.9164  97.1643 15.77820602  5878
STARLINK-11430 [DTC]    
1 62916U 25027K   25069.22101737 -.00005655  00000+0 -29670-4 0  9995
2 62916  42.9995  25.2009 0003033 256.5770 103.4762 15.77829081  5863
STARLINK-11560 [DTC]    
1 62917U 25027L   25069.15283340 -.00015015  00000+0 -83680-4 0  9991
2 62917  42.9991  25.5455 0001605 280.8318  79.2372 15.77825984  5796
STARLINK-11562 [DTC]    
1 62918U 25027M   25067.00003472 -.00023204  00000+0 -13079-3 0  9993
2 62918  42.9996  38.5919 0001419 257.0927 127.2391 15.77863706  5548
STARLINK-11457 [DTC]    
1 62919U 25027N   25068.00002315  .00023355  00000+0  13684-3 0  9997
2 62919  42.9995  32.4317 0001325 269.5050  69.7613 15.77833525  5648
STARLINK-32921          
1 62920U 25027P   25068.00002315  .00042477  00000+0  10195-2 0  9998
2 62920  43.0003  36.1509 0001455 265.9452   5.3155 15.40669352  5660
STARLINK-32917          
1 62921U 25027Q   25067.00003472  .00022523  00000+0  41160-3 0  9990
2 62921  43.0002  41.6600 0001405 269.8512 312.0650 15.48948680  5433
STARLINK-32916          
1 62922U 25027R   25068.00002315 -.00057792  00000+0 -10440-2 0  9991
2 62922  43.0000  35.8216 0001386 269.6246 137.0738 15.48984551  5664
STARLINK-32905          
1 62923U 25027S   25068.91668981  .00114125  00000+0  27096-2 0  9996
2 62923  43.0001  30.6565 0001306 254.9754 153.8106 15.40577354  5801
STARLINK-32871          
1 62924U 25027T   25067.00003472 -.00017434  00000+0 -30925-3 0  9997
2 62924  43.0001  41.6455 0001388 258.0649 329.5955 15.48970069  5497
STARLINK-32920          
1 62925U 25027U   25067.00003472  .00002294  00000+0  47436-4 0  9990
2 62925  43.0002  41.6306 0001448 265.7950 327.6213 15.48958338  5436
STARLINK-32922          
1 62926U 25027V   25069.08684422 -.00000940  00000+0 -10938-4 0  9996
2 62926  42.9997  29.4610 0001236 263.5190  96.5529 15.48957640  5759
STARLINK-32891          
1 62927U 25027W   25069.50002315  .00055628  00000+0  13325-2 0  9991
2 62927  43.0003  27.1748 0001935 264.9691 192.7531 15.40625313  5791
ELECTRON KICK STAGE R/B 
1 62928U 25028A   25069.25220481  .00004458  00000+0  50823-3 0  9991
2 62928  97.9527 125.0944 0040889 292.9673  66.7230 14.86057349  4364
KINEIS-2C               
1 62929U 25028B   25069.51792674  .00003262  00000+0  48097-3 0  9991
2 62929  97.9520 124.8902 0000231 126.2281 233.8950 14.75998355  4365
KINEIS-2D               
1 62930U 25028C   25069.51615245  .00000145  00000+0  28309-4 0  9993
2 62930  97.9519 124.8920 0000509 177.6685 182.4527 14.76065553  4377
KINEIS-2E               
1 62931U 25028D   25069.51439217  .00003140  00000+0  46170-3 0  9990
2 62931  97.9517 124.8948 0001379 125.2362 234.8977 14.76151775  4376
KINEIS-2A               
1 62932U 25028E   25069.50832240  .00000020  00000+0  10181-4 0  9991
2 62932  97.9521 124.9026 0002273 179.1982 180.9232 14.76447232  4360
KINEIS-2B               
1 62934U 25028G   25069.50605487  .00003398  00000+0  49401-3 0  9991
2 62934  97.9520 124.9057 0002779 161.3013 198.8300 14.76582846  4369
STARLINK-32728          
1 62948U 25029A   25068.91668981  .00000453  00000+0  16215-4 0  9996
2 62948  53.1605 130.3430 0001167 106.0204  91.2932 15.49302447  5328
STARLINK-32857          
1 62949U 25029B   25069.16667824 -.01510076  00000+0 -35763-1 0  9996
2 62949  53.1605 129.1718 0001447  84.0924  56.0294 15.44263804  5462
STARLINK-32850          
1 62950U 25029C   25068.91668981 -.00004590  00000+0 -74538-4 0  9999
2 62950  53.1604 130.3354 0001171 106.6532  94.4934 15.49301251  5486
STARLINK-32875          
1 62951U 25029D   25069.50002315 -.01503791  00000+0 -34676-1 0  9993
2 62951  53.1600 127.5605 0001537  83.6345 126.5716 15.45028087  5510
STARLINK-32865          
1 62952U 25029E   25069.16667824  .00033806  00000+0  61343-3 0  9993
2 62952  53.1604 129.1360 0001206 108.4003  49.7497 15.49300971  5466
STARLINK-32884          
1 62953U 25029F   25069.50002315 -.01368563  00000+0 -27050-1 0  9999
2 62953  53.1601 127.5365 0001801  96.3260 125.8055 15.49639579  5513
STARLINK-32874          
1 62954U 25029G   25069.50002315 -.00004086  00000+0 -65430-4 0  9993
2 62954  53.1600 127.5323 0001189  81.6117 142.5790 15.49318452  5510
STARLINK-32880          
1 62955U 25029H   25069.50002315  .00044242  00000+0  80339-3 0  9994
2 62955  53.1600 127.5279 0000423 119.1313 107.2349 15.49153384  5515
STARLINK-32815          
1 62956U 25029J   25069.16667824 -.01510291  00000+0 -31630-1 0  9992
2 62956  53.1603 129.1188 0001440  97.9366  68.5311 15.47811026  5472
STARLINK-32879          
1 62957U 25029K   25068.91668981  .00022773  00000+0  41656-3 0  9991
2 62957  53.1603 130.3075 0001556  97.4287 117.1356 15.49292957  5486
STARLINK-32885          
1 62958U 25029L   25069.50002315 -.00002433  00000+0 -35680-4 0  9995
2 62958  53.1600 127.5163 0001210 100.7758 131.0854 15.49322553  5505
STARLINK-32896          
1 62959U 25029M   25068.91668981  .00019367  00000+0  35560-3 0  9995
2 62959  53.1602 130.2994 0001484 100.8281 117.5693 15.49293127  5487
STARLINK-32877          
1 62960U 25029N   25069.50002315  .00057033  00000+0  10273-2 0  9991
2 62960  53.1600 127.5086 0001169  76.8939 158.8273 15.49273789  5462
STARLINK-32889          
1 62961U 25029P   25069.16667824 -.01511167  00000+0 -32851-1 0  9997
2 62961  53.1602 129.1040 0001533  93.9531  79.6782 15.46745526  5450
STARLINK-32858          
1 62962U 25029Q   25069.16667824 -.01519830  00000+0 -31155-1 0  9999
2 62962  53.1601 129.0832 0001275  93.4954  91.0408 15.48439942  5362
STARLINK-32882          
1 62963U 25029R   25068.91668981  .00021766  00000+0  39856-3 0  9998
2 62963  53.1602 130.2880 0001146 104.3685 119.7826 15.49291094  5481
STARLINK-32887          
1 62964U 25029S   25069.16667824 -.01510142  00000+0 -36323-1 0  9990
2 62964  53.1601 129.1182 0001494  89.5471  76.6755 15.43810233  5451
STARLINK-32836          
1 62965U 25029T   25069.50002315 -.00018460  00000+0 -32448-3 0  9998
2 62965  53.1600 127.4969 0001206  87.7471 153.7039 15.49321202  5503
STARLINK-32888          
1 62966U 25029U   25069.50002315 -.00001594  00000+0 -20587-4 0  9991
2 62966  53.1599 127.4853 0001401  95.0426 152.1536 15.49319413  5508
STARLINK-32897          
1 62967U 25029V   25069.50002315 -.00009778  00000+0 -16790-3 0  9994
2 62967  53.1599 127.4815 0001106  88.0241 161.0897 15.49320571  5502
STARLINK-32863          
1 62968U 25029W   25069.50002315  .00007609  00000+0  14470-3 0  9997
2 62968  53.1599 127.4772 0001338  99.8950 151.1320 15.49317597  5469
STARLINK-32894          
1 62969U 25029X   25068.91668981  .00006854  00000+0  13125-3 0  9996
2 62969  53.1600 130.2603 0001182 105.3188 132.2514 15.49295771  5487
STARLINK-32826          
1 62970U 25029Y   25069.50002315 -.00010227  00000+0 -17601-3 0  9991
2 62970  53.1599 127.4692 0001088  91.3850 163.4813 15.49317304  5505
2025-030A               
1 62971U 25030A   25069.50293956  .00000118  00000+0  16165-3 0  9997
2 62971  50.0005 122.6873 0007944 351.5883   8.4888 14.06791192  3811
2025-030B               
1 62972U 25030B   25069.50576105  .00000118  00000+0  16199-3 0  9995
2 62972  50.0021 122.7072 0008770 348.5457  11.5247 14.06756752  3810
2025-030C               
1 62973U 25030C   25069.50169405  .00000118  00000+0  16171-3 0  9997
2 62973  50.0025 122.6865 0006476 347.5083  12.5661 14.06768191  3810
2025-030D               
1 62974U 25030D   25069.49824669  .00000099  00000+0  15046-3 0  9994
2 62974  50.0030 122.6695 0008029 356.7974   3.2879 14.06807020  3818
2025-030E               
1 62975U 25030E   25069.50051706  .00000106  00000+0  15497-3 0  9990
2 62975  50.0026 122.6803 0006266 346.8545  13.2196 14.06764345  3815
2025-030F               
1 62976U 25030F   25069.49703958  .00000110  00000+0  15685-3 0  9996
2 62976  50.0048 122.6679 0007263   6.8128 353.2876 14.06764672  3814
2025-030G               
1 62977U 25030G   25069.49584990  .00000109  00000+0  15649-3 0  9998
2 62977  50.0060 122.6650 0005549   1.3884 358.7037 14.06764724  3819
2025-030H               
1 62978U 25030H   25069.49287639  .00000110  00000+0  15695-3 0  9992
2 62978  50.0063 122.6498 0007342  11.1883 348.9185 14.06759494  3817
2025-030J               
1 62979U 25030J   25069.49941651  .00000108  00000+0  15598-3 0  9993
2 62979  50.0049 122.6816 0005973   6.9047 353.1940 14.06762573  3817
